[{"OBJECT_NAME":"FLOCK 4Q-15","OBJECT_ID":"2023-174BR","EPOCH":"2026-03-04T17:00:50.248224","MEAN_MOTION":15.58930462,"ECCENTRICITY":0.0004993,"INCLINATION":97.3915,"RA_OF_ASC_NODE":154.3924,"ARG_OF_PERICENTER":165.5893,"MEAN_ANOMALY":194.5507,"EPHEMERIS_TYPE":0,"CLASSIFICATION_TYPE":"U","NORAD_CAT_ID":58319,"ELEMENT_SET_NO":999,"REV_AT_EPOCH":12969,"BSTAR":0.0018459,"MEAN_MOTION_DOT":0.00145488,"MEAN_MOTION_DDOT":0},{"OBJECT_NAME":"FLOCK 4Q-2","OBJECT_ID":"2023-174BS","EPOCH":"2026-03-04T19:38:23.995392","MEAN_MOTION":15.44709726,"ECCENTRICITY":0.000803,"INCLINATION":97.3874,"RA_OF_ASC_NODE":150.1442,"ARG_OF_PERICENTER":153.8049,"MEAN_ANOMALY":206.3607,"EPHEMERIS_TYPE":0,"CLASSIFICATION_TYPE":"U","NORAD_CAT_ID":58320,"ELEMENT_SET_NO":999,"REV_AT_EPOCH":12946,"BSTAR":0.00063934,"MEAN_MOTION_DOT":0.00029866,"MEAN_MOTION_DDOT":0},{"OBJECT_NAME":"FLOCK 4Q-9","OBJECT_ID":"2023-174BU","EPOCH":"2026-03-04T04:31:06.053664","MEAN_MOTION":15.4431998,"ECCENTRICITY":0.00080248,"INCLINATION":97.3912,"RA_OF_ASC_NODE":149.5477,"ARG_OF_PERICENTER":156.6077,"MEAN_ANOMALY":203.5538,"EPHEMERIS_TYPE":0,"CLASSIFICATION_TYPE":"U","NORAD_CAT_ID":58322,"ELEMENT_SET_NO":999,"REV_AT_EPOCH":12935,"BSTAR":0.00081396179,"MEAN_MOTION_DOT":0.00037584,"MEAN_MOTION_DDOT":0},{"OBJECT_NAME":"FLOCK 4Q-4","OBJECT_ID":"2023-174BZ","EPOCH":"2026-03-04T04:31:24.627936","MEAN_MOTION":15.43956065,"ECCENTRICITY":0.00074756,"INCLINATION":97.3867,"RA_OF_ASC_NODE":148.9274,"ARG_OF_PERICENTER":174.044,"MEAN_ANOMALY":186.0899,"EPHEMERIS_TYPE":0,"CLASSIFICATION_TYPE":"U","NORAD_CAT_ID":58327,"ELEMENT_SET_NO":999,"REV_AT_EPOCH":12933,"BSTAR":0.00079133044,"MEAN_MOTION_DOT":0.00036078,"MEAN_MOTION_DDOT":0},{"OBJECT_NAME":"FLOCK 4Q-13","OBJECT_ID":"2023-174CA","EPOCH":"2026-03-04T05:34:33.166848","MEAN_MOTION":15.46596954,"ECCENTRICITY":0.00075144,"INCLINATION":97.4029,"RA_OF_ASC_NODE":151.357,"ARG_OF_PERICENTER":168.7674,"MEAN_ANOMALY":191.3745,"EPHEMERIS_TYPE":0,"CLASSIFICATION_TYPE":"U","NORAD_CAT_ID":58328,"ELEMENT_SET_NO":999,"REV_AT_EPOCH":12942,"BSTAR":0.00089734457,"MEAN_MOTION_DOT":0.00044824,"MEAN_MOTION_DDOT":0},{"OBJECT_NAME":"FLOCK 4Q-21","OBJECT_ID":"2023-174CB","EPOCH":"2026-03-04T05:48:08.300736","MEAN_MOTION":15.56778475,"ECCENTRICITY":0.00058515,"INCLINATION":97.3944,"RA_OF_ASC_NODE":154.3687,"ARG_OF_PERICENTER":174.6962,"MEAN_ANOMALY":185.4356,"EPHEMERIS_TYPE":0,"CLASSIFICATION_TYPE":"U","NORAD_CAT_ID":58329,"ELEMENT_SET_NO":999,"REV_AT_EPOCH":12964,"BSTAR":0.0009817285,"MEAN_MOTION_DOT":0.00070717,"MEAN_MOTION_DDOT":0},{"OBJECT_NAME":"FLOCK 4BE-18","OBJECT_ID":"2024-149N","EPOCH":"2026-03-04T05:06:28.148256","MEAN_MOTION":15.38010814,"ECCENTRICITY":0.00030642,"INCLINATION":97.3786,"RA_OF_ASC_NODE":146.1122,"ARG_OF_PERICENTER":266.7483,"MEAN_ANOMALY":93.3412,"EPHEMERIS_TYPE":0,"CLASSIFICATION_TYPE":"U","NORAD_CAT_ID":60480,"ELEMENT_SET_NO":999,"REV_AT_EPOCH":8615,"BSTAR":0.00081195118,"MEAN_MOTION_DOT":0.00030366,"MEAN_MOTION_DDOT":0},{"OBJECT_NAME":"FLOCK 4BE-7","OBJECT_ID":"2024-149P","EPOCH":"2026-03-04T16:13:43.134816","MEAN_MOTION":15.36070769,"ECCENTRICITY":0.0002037,"INCLINATION":97.3816,"RA_OF_ASC_NODE":146.1784,"ARG_OF_PERICENTER":254.4192,"MEAN_ANOMALY":105.6827,"EPHEMERIS_TYPE":0,"CLASSIFICATION_TYPE":"U","NORAD_CAT_ID":60481,"ELEMENT_SET_NO":999,"REV_AT_EPOCH":8618,"BSTAR":0.00062144,"MEAN_MOTION_DOT":0.00021788,"MEAN_MOTION_DDOT":0},{"OBJECT_NAME":"FLOCK 4BE-26","OBJECT_ID":"2024-149S","EPOCH":"2026-03-04T15:14:45.409056","MEAN_MOTION":15.43171084,"ECCENTRICITY":0.0005891,"INCLINATION":97.3774,"RA_OF_ASC_NODE":146.419,"ARG_OF_PERICENTER":255.8968,"MEAN_ANOMALY":104.1625,"EPHEMERIS_TYPE":0,"CLASSIFICATION_TYPE":"U","NORAD_CAT_ID":60484,"ELEMENT_SET_NO":999,"REV_AT_EPOCH":8621,"BSTAR":0.0026313,"MEAN_MOTION_DOT":0.00118235,"MEAN_MOTION_DDOT":0},{"OBJECT_NAME":"FLOCK 4BE-36","OBJECT_ID":"2024-149U","EPOCH":"2026-03-04T15:14:35.556000","MEAN_MOTION":15.38894405,"ECCENTRICITY":0.0002787,"INCLINATION":97.3794,"RA_OF_ASC_NODE":147.0753,"ARG_OF_PERICENTER":276.7274,"MEAN_ANOMALY":83.3654,"EPHEMERIS_TYPE":0,"CLASSIFICATION_TYPE":"U","NORAD_CAT_ID":60486,"ELEMENT_SET_NO":999,"REV_AT_EPOCH":8625,"BSTAR":0.00075933,"MEAN_MOTION_DOT":0.00029215,"MEAN_MOTION_DDOT":0},{"OBJECT_NAME":"FLOCK 4BE-25","OBJECT_ID":"2024-149V","EPOCH":"2026-03-04T04:01:51.744864","MEAN_MOTION":15.35785137,"ECCENTRICITY":0.00012373,"INCLINATION":97.3853,"RA_OF_ASC_NODE":145.8175,"ARG_OF_PERICENTER":244.2774,"MEAN_ANOMALY":115.8342,"EPHEMERIS_TYPE":0,"CLASSIFICATION_TYPE":"U","NORAD_CAT_ID":60487,"ELEMENT_SET_NO":999,"REV_AT_EPOCH":8610,"BSTAR":0.00067878967,"MEAN_MOTION_DOT":0.00023594,"MEAN_MOTION_DDOT":0},{"OBJECT_NAME":"FLOCK 4BE-31","OBJECT_ID":"2024-149W","EPOCH":"2026-03-04T11:26:26.583648","MEAN_MOTION":15.39666763,"ECCENTRICITY":0.00017034,"INCLINATION":97.3849,"RA_OF_ASC_NODE":147.5286,"ARG_OF_PERICENTER":271.1243,"MEAN_ANOMALY":88.9808,"EPHEMERIS_TYPE":0,"CLASSIFICATION_TYPE":"U","NORAD_CAT_ID":60488,"ELEMENT_SET_NO":999,"REV_AT_EPOCH":8624,"BSTAR":0.00089457634,"MEAN_MOTION_DOT":0.00035339,"MEAN_MOTION_DDOT":0},{"OBJECT_NAME":"FLOCK 4BE-20","OBJECT_ID":"2024-149X","EPOCH":"2026-03-04T05:00:36.900288","MEAN_MOTION":15.35071237,"ECCENTRICITY":0.00024364,"INCLINATION":97.376,"RA_OF_ASC_NODE":145.0005,"ARG_OF_PERICENTER":271.4243,"MEAN_ANOMALY":88.6721,"EPHEMERIS_TYPE":0,"CLASSIFICATION_TYPE":"U","NORAD_CAT_ID":60489,"ELEMENT_SET_NO":999,"REV_AT_EPOCH":8609,"BSTAR":0.00064989296,"MEAN_MOTION_DOT":0.00022075,"MEAN_MOTION_DDOT":0},{"OBJECT_NAME":"FLOCK 4BE-23","OBJECT_ID":"2024-149Y","EPOCH":"2026-03-04T15:08:02.582880","MEAN_MOTION":15.34727117,"ECCENTRICITY":0.0002064,"INCLINATION":97.3837,"RA_OF_ASC_NODE":145.7415,"ARG_OF_PERICENTER":281.567,"MEAN_ANOMALY":78.5341,"EPHEMERIS_TYPE":0,"CLASSIFICATION_TYPE":"U","NORAD_CAT_ID":60490,"ELEMENT_SET_NO":999,"REV_AT_EPOCH":8614,"BSTAR":0.00061656,"MEAN_MOTION_DOT":0.00020707,"MEAN_MOTION_DDOT":0},{"OBJECT_NAME":"FLOCK 4BE-15","OBJECT_ID":"2024-149Z","EPOCH":"2026-03-04T04:28:39.416448","MEAN_MOTION":15.39370368,"ECCENTRICITY":0.00028896,"INCLINATION":97.3776,"RA_OF_ASC_NODE":146.3134,"ARG_OF_PERICENTER":327.6143,"MEAN_ANOMALY":32.4925,"EPHEMERIS_TYPE":0,"CLASSIFICATION_TYPE":"U","NORAD_CAT_ID":60491,"ELEMENT_SET_NO":999,"REV_AT_EPOCH":8617,"BSTAR":0.0027918606,"MEAN_MOTION_DOT":0.00110485,"MEAN_MOTION_DDOT":0},{"OBJECT_NAME":"FLOCK 4BE-17","OBJECT_ID":"2024-149AA","EPOCH":"2026-03-04T05:22:57.244224","MEAN_MOTION":15.36413983,"ECCENTRICITY":0.00020534,"INCLINATION":97.3834,"RA_OF_ASC_NODE":146.001,"ARG_OF_PERICENTER":259.7334,"MEAN_ANOMALY":100.3679,"EPHEMERIS_TYPE":0,"CLASSIFICATION_TYPE":"U","NORAD_CAT_ID":60492,"ELEMENT_SET_NO":999,"REV_AT_EPOCH":8612,"BSTAR":0.00071948517,"MEAN_MOTION_DOT":0.0002553,"MEAN_MOTION_DDOT":0}]
